SARI-2                  
1 66669U 25276D   26183.81738468  .00031886  00000+0  11587-2 0  9999
2 66669  97.4062 257.9330 0004985 313.5001  46.5824 15.28204651 32874
HUNITY                  
1 66670U 25276E   26183.65300209  .00027769  00000+0  10225-2 0  9994
2 66670  97.4064 257.7178 0004723 315.1314  44.9543 15.27801297 32846
ANISCSAT-1              
1 66671U 25276F   26183.44059566  .00011828  00000+0  52214-3 0  9993
2 66671  97.4203 257.0006 0004233 311.6545  48.4329 15.21897308 32751
BRO-17                  
1 66672U 25276G   26183.47500083  .00003906  00000+0  19483-3 0  9991
2 66672  97.4187 256.2902 0005386 317.1201  42.9612 15.18092763 32717
TRANSPORTER-15 OBJECT H 
1 66673U 25276H   26183.47531888  .00011135  00000+0  47128-3 0  9999
2 66673  97.4159 257.1056 0004885 325.3777  34.7141 15.23345290 32773
BRO-20                  
1 66674U 25276J   26183.65016040  .00003481  00000+0  17319-3 0  9992
2 66674  97.4166 256.4505 0005081 320.9058  39.1808 15.18263071 32741
VEERY-0G                
1 66675U 25276K   26183.17110533  .00010469  00000+0  47352-3 0  9996
2 66675  97.4170 256.5001 0004449 321.9184  38.1737 15.21093941 32704
TRANSPORTER-15 OBJECT L 
1 66676U 25276L   26183.44832508  .00005825  00000+0  28019-3 0  9999
2 66676  97.4170 256.4445 0004665 323.5753  36.5163 15.19163282 32726
AE5RC                   
1 66677U 25276M   26183.45652235  .00012850  00000+0  54640-3 0  9993
2 66677  97.4175 257.1884 0003555 332.3875  27.7172 15.23155190 32778
LEMUR-2-DEANANDMAEVE    
1 66678U 25276N   26183.19436209  .00007503  00000+0  35220-3 0  9998
2 66678  97.4208 256.4220 0004424 315.6162  44.4718 15.19917633 32697
LILIUM-2                
1 66679U 25276P   26183.66434825  .00003014  00000+0  15129-3 0  9992
2 66679  97.4149 256.3981 0004866 325.1779  34.9136 15.18050696 32745
OTTER                   
1 66680U 25276Q   26183.17180243  .00006629  00000+0  31662-3 0  9997
2 66680  97.4199 256.2761 0004312 315.6092  44.4797 15.19358946 32687
TRANSPORTER-15 OBJECT R 
1 66681U 25276R   26183.51061890  .00018623  00000+0  75929-3 0  9993
2 66681  97.4112 257.2619 0003788 330.4061  29.6961 15.24491849 32799
ION SCV-022             
1 66682U 25276S   26183.47893003  .00001777  00000+0  15690-3 0  9999
2 66682  97.5294 253.6070 0006270 113.8523 246.3358 14.97570416 32366
6GSTARLAB               
1 66683U 25276T   26183.47792860  .00003651  00000+0  18035-3 0  9998
2 66683  97.4242 256.5895 0004445 311.4414  48.6438 15.18477067 32727
MICE-1                  
1 66684U 25276U   26183.19633564  .00004480  00000+0  21545-3 0  9994
2 66684  97.4264 256.5753 0003902 311.4052  48.6847 15.19295836 32693
AE5RA                   
1 66685U 25276V   26183.45558023  .00013257  00000+0  56290-3 0  9997
2 66685  97.4209 257.2917 0003110 329.7170  30.3887 15.23197547 32773
LEMUR-2-STAS-GORBUK     
1 66686U 25276W   26183.67342262  .00006824  00000+0  32410-3 0  9998
2 66686  97.4241 256.9469 0003659 312.5250  47.5675 15.19544822 32766
LEO EXPRESS 3           
1 66687U 25276X   26183.43993057  .00013744  00000+0  61374-3 0  9997
2 66687  97.4256 256.9006 0005636 101.0192 259.1678 15.21460169 32749
WISDOM A                
1 66688U 25276Y   26183.47224148  .00006381  00000+0  30383-3 0  9995
2 66688  97.4217 256.6883 0003571 315.9031  44.1919 15.19482941 32739
AC1-003                 
1 66689U 25276Z   26183.47825794  .00002949  00000+0  14709-3 0  9990
2 66689  97.4200 256.4844 0002048 356.4793   3.6426 15.18292073 32726
TRANSPORTER-15 OBJECT AA
1 66690U 25276AA  26183.16486917  .00005282  00000+0  25438-3 0  9992
2 66690  97.4179 256.2299 0003475 321.0759  39.0225 15.19169454 32682
TRANSPORTER-15 OBJECT AB
1 66691U 25276AB  26183.47370049  .00010550  00000+0  47598-3 0  9990
2 66691  97.4194 256.9428 0003196 314.8055  45.2921 15.21181921 32756
NUSAT-52                
1 66692U 25276AC  26183.62008631  .00006298  00000+0  29674-3 0  9992
2 66692  97.4202 256.9128 0002056 350.3710   9.7486 15.19856589 32769
AE5RB                   
1 66693U 25276AD  26183.45611909  .00013297  00000+0  56454-3 0  9995
2 66693  97.4167 257.1632 0002383 328.1905  31.9188 15.23201139 32772
YAM-9                   
1 66694U 25276AE  26183.65011948  .00005646  00000+0  30507-3 0  9995
2 66694  97.4208 255.8274 0007172 252.9167 107.1280 15.15071104 32699
IRIDE FM1               
1 66695U 25276AF  26183.67131903  .00006698  00000+0  30493-3 0  9994
2 66695  97.4193 257.2574 0000608 108.0659 252.0643 15.21020539 32793
IRIDE FM2               
1 66696U 25276AG  26183.17424496  .00008723  00000+0  40016-3 0  9995
2 66696  97.4180 256.5135 0002306 336.1631  23.9497 15.20664930 32707
IRIDE FM3               
1 66697U 25276AH  26183.81153827  .00009003  00000+0  40817-3 0  9995
2 66697  97.4178 257.3381 0000697 190.8122 169.3098 15.21063017 32812
IRIDE FM4               
1 66698U 25276AJ  26183.16504329  .00007052  00000+0  33129-3 0  9991
2 66698  97.4181 256.3779 0002665 332.3287  27.7806 15.19915427 32697
