OBJECT_NAME,OBJECT_ID,EPOCH,MEAN_MOTION,ECCENTRICITY,INCLINATION,RA_OF_ASC_NODE,ARG_OF_PERICENTER,MEAN_ANOMALY,EPHEMERIS_TYPE,CLASSIFICATION_TYPE,NORAD_CAT_ID,ELEMENT_SET_NO,REV_AT_EPOCH,BSTAR,MEAN_MOTION_DOT,MEAN_MOTION_DDOT
SARI-2,2025-276D,2026-07-02T19:37:02.036352,15.28204651,.00049855,97.4062,257.9330,313.5001,46.5824,0,U,66669,999,3287,.11586987E-2,.31886E-3,0
HUNITY,2025-276E,2026-07-02T15:40:19.380576,15.27801297,.00047239,97.4064,257.7178,315.1314,44.9543,0,U,66670,999,3284,.10224634E-2,.27769E-3,0
ANISCSAT-1,2025-276F,2026-07-02T10:34:27.465024,15.21897308,.0004233,97.4203,257.0006,311.6545,48.4329,0,U,66671,999,3275,.52214E-3,.11828E-3,0
BRO-17,2025-276G,2026-07-02T11:24:00.071712,15.18092763,.0005386,97.4187,256.2902,317.1201,42.9612,0,U,66672,999,3271,.19483E-3,.3906E-4,0
TRANSPORTER-15 OBJECT H,2025-276H,2026-07-02T11:24:27.551232,15.23345290,.0004885,97.4159,257.1056,325.3777,34.7141,0,U,66673,999,3277,.47128E-3,.11135E-3,0
BRO-20,2025-276J,2026-07-02T15:36:13.858560,15.18263071,.00050811,97.4166,256.4505,320.9058,39.1808,0,U,66674,999,3274,.17318511E-3,.3481E-4,0
VEERY-0G,2025-276K,2026-07-02T04:06:23.500512,15.21093941,.00044492,97.4170,256.5001,321.9184,38.1737,0,U,66675,999,3270,.4735194E-3,.10469E-3,0
TRANSPORTER-15 OBJECT L,2025-276L,2026-07-02T10:45:35.286912,15.19163282,.0004665,97.4170,256.4445,323.5753,36.5163,0,U,66676,999,3272,.28019E-3,.5825E-4,0
AE5RC,2025-276M,2026-07-02T10:57:23.531040,15.23155190,.0003555,97.4175,257.1884,332.3875,27.7172,0,U,66677,999,3277,.5464E-3,.1285E-3,0
LEMUR-2-DEANANDMAEVE,2025-276N,2026-07-02T04:39:52.884576,15.19917633,.00044246,97.4208,256.4220,315.6162,44.4718,0,U,66678,999,3269,.35220213E-3,.7503E-4,0
LILIUM-2,2025-276P,2026-07-02T15:56:39.688800,15.18050696,.00048661,97.4149,256.3981,325.1779,34.9136,0,U,66679,999,3274,.15129167E-3,.3014E-4,0
OTTER,2025-276Q,2026-07-02T04:07:23.729952,15.19358946,.00043127,97.4199,256.2761,315.6092,44.4797,0,U,66680,999,3268,.31662031E-3,.6629E-4,0
TRANSPORTER-15 OBJECT R,2025-276R,2026-07-02T12:15:17.472960,15.24491849,.0003788,97.4112,257.2619,330.4061,29.6961,0,U,66681,999,3279,.75929E-3,.18623E-3,0
ION SCV-022,2025-276S,2026-07-02T11:29:39.554592,14.97570416,.000627,97.5294,253.6070,113.8523,246.3358,0,U,66682,999,3236,.1569E-3,.1777E-4,0
6GSTARLAB,2025-276T,2026-07-02T11:28:13.031040,15.18477067,.0004445,97.4242,256.5895,311.4414,48.6438,0,U,66683,999,3272,.18035E-3,.3651E-4,0
MICE-1,2025-276U,2026-07-02T04:42:43.399296,15.19295836,.0003902,97.4264,256.5753,311.4052,48.6847,0,U,66684,999,3269,.21544783E-3,.448E-4,0
AE5RA,2025-276V,2026-07-02T10:56:02.131872,15.23197547,.000311,97.4209,257.2917,329.7170,30.3887,0,U,66685,999,3277,.5629E-3,.13257E-3,0
LEMUR-2-STAS-GORBUK,2025-276W,2026-07-02T16:09:43.714368,15.19544822,.00036594,97.4241,256.9469,312.5250,47.5675,0,U,66686,999,3276,.32410098E-3,.6824E-4,0
LEO EXPRESS 3,2025-276X,2026-07-02T10:33:30.001248,15.21460169,.0005636,97.4256,256.9006,101.0192,259.1678,0,U,66687,999,3274,.61374E-3,.13744E-3,0
WISDOM A,2025-276Y,2026-07-02T11:20:01.663872,15.19482941,.0003571,97.4217,256.6883,315.9031,44.1919,0,U,66688,999,3273,.30383E-3,.6381E-4,0
AC1-003,2025-276Z,2026-07-02T11:28:41.486016,15.18292073,.0002048,97.4200,256.4844,356.4793,3.6426,0,U,66689,999,3272,.14709E-3,.2949E-4,0
TRANSPORTER-15 OBJECT AA,2025-276AA,2026-07-02T03:57:24.696288,15.19169454,.00034755,97.4179,256.2299,321.0759,39.0225,0,U,66690,999,3268,.25437644E-3,.5282E-4,0
TRANSPORTER-15 OBJECT AB,2025-276AB,2026-07-02T11:22:07.722336,15.21181921,.0003196,97.4194,256.9428,314.8055,45.2921,0,U,66691,999,3275,.47598E-3,.1055E-3,0
NUSAT-52,2025-276AC,2026-07-02T14:52:55.457184,15.19856589,.00020563,97.4202,256.9128,350.3710,9.7486,0,U,66692,999,3276,.29673612E-3,.6298E-4,0
AE5RB,2025-276AD,2026-07-02T10:56:48.689376,15.23201139,.0002383,97.4167,257.1632,328.1905,31.9188,0,U,66693,999,3277,.56454E-3,.13297E-3,0
YAM-9,2025-276AE,2026-07-02T15:36:10.323072,15.15071104,.00071727,97.4208,255.8274,252.9167,107.1280,0,U,66694,999,3269,.30507286E-3,.5646E-4,0
IRIDE FM1,2025-276AF,2026-07-02T16:06:41.964192,15.21020539,.00006086,97.4193,257.2574,108.0659,252.0643,0,U,66695,999,3279,.30493149E-3,.6698E-4,0
IRIDE FM2,2025-276AG,2026-07-02T04:10:54.764544,15.20664930,.00023068,97.4180,256.5135,336.1631,23.9497,0,U,66696,999,3270,.4001637E-3,.8723E-4,0
IRIDE FM3,2025-276AH,2026-07-02T19:28:36.906528,15.21063017,.00006976,97.4178,257.3381,190.8122,169.3098,0,U,66697,999,3281,.40816539E-3,.9003E-4,0
IRIDE FM4,2025-276AJ,2026-07-02T03:57:39.740256,15.19915427,.00026657,97.4181,256.3779,332.3287,27.7806,0,U,66698,999,3269,.33129324E-3,.7052E-4,0
